NORAD_CAT_ID,OBJECT_NAME,OBJECT_TYPE,EPOCH,MEAN_MOTION,ECCENTRICITY,INCLINATION,RA_OF_ASC_NODE,ARG_OF_PERICENTER,MEAN_ANOMALY,BSTAR,MEAN_MOTION_DOT,MEAN_MOTION_DDOT,TLE_LINE0,TLE_LINE1,TLE_LINE2,SEMIMAJOR_AXIS,PERIOD,APOGEE,PERIGEE,DECAYED
53553.0,STARLINK-4501,PAYLOAD,2023-08-27 11:36:51,15.08839354,0.0001364,53.2164,257.4062,98.0981,262.0166,5.1124e-05,5.26e-06,0.0,0 STARLINK-4501,1 53553U 22101AC  23239.48392867  .00000526  00000-0  51124-4 0  9993,2 53553  53.2164 257.4062 0001364  98.0981 262.0166 15.08839354 56638,6917.882,95.438,540.691,538.804,0.0
53553.0,STARLINK-4501,PAYLOAD,2023-08-28 01:55:20,15.08832976,0.0001354,53.2163,254.7297,95.4148,264.6998,3.9476e-05,3.4e-06,0.0,0 STARLINK-4501,1 53553U 22101AC  23240.08009491  .00000340  00000-0  39476-4 0  9999,2 53553  53.2163 254.7297 0001354  95.4148 264.6998 15.08832976 56726,6917.902,95.438,540.704,538.83,0.0
53553.0,STARLINK-4501,PAYLOAD,2023-08-28 17:49:11,15.08837256,0.0001338,53.2162,251.7563,89.9588,270.1557,5.7778e-05,6.32e-06,0.0,0 STARLINK-4501,1 53553U 22101AC  23240.74249360  .00000632  00000-0  57778-4 0  9992,2 53553  53.2162 251.7563 0001338  89.9588 270.1557 15.08837256 57489,6917.889,95.438,540.679,538.828,0.0
53553.0,STARLINK-4501,PAYLOAD,2023-08-29 08:07:39,15.08839363,0.0001368,53.2162,249.0799,90.0049,270.11,4.5871e-05,4.42e-06,0.0,0 STARLINK-4501,1 53553U 22101AC  23241.33865372  .00000442  00000-0  45871-4 0  9995,2 53553  53.2162 249.0799 0001368  90.0049 270.1100 15.08839363 56910,6917.882,95.438,540.694,538.801,0.0
53553.0,STARLINK-4501,PAYLOAD,2023-08-30 17:30:45,15.08840464,0.0001425,53.2163,242.8357,89.4,270.7156,5.0446e-05,5.15e-06,0.0,0 STARLINK-4501,1 53553U 22101AC  23242.72969415  .00000515  00000-0  50446-4 0  9997,2 53553  53.2163 242.8357 0001425  89.4000 270.7156 15.08840464 57782,6917.879,95.438,540.73,538.758,0.0
53553.0,STARLINK-4501,PAYLOAD,2023-08-31 09:24:36,15.08843594,0.0001414,53.2159,239.8613,90.8225,269.293,6.7556e-05,7.87e-06,0.0,0 STARLINK-4501,1 53553U 22101AC  23243.39209094  .00000787  00000-0  67556-4 0  9992,2 53553  53.2159 239.8613 0001414  90.8225 269.2930 15.08843594 57882,6917.869,95.437,540.713,538.756,0.0
53553.0,STARLINK-4501,PAYLOAD,2023-09-01 09:15:23,15.08841241,0.0001362,53.2156,235.4007,90.6752,269.4396,1.8384e-05,5e-08,0.0,0 STARLINK-4501,1 53553U 22101AC  23244.38569331  .00000005  00000-0  18384-4 0  9993,2 53553  53.2156 235.4007 0001362  90.6752 269.4396 15.08841241 57372,6917.877,95.437,540.684,538.799,0.0
53553.0,STARLINK-4501,PAYLOAD,2023-09-02 07:30:47,15.0883951,0.0001486,53.2155,231.2378,90.65,269.4663,3.1981e-05,2.21e-06,0.0,0 STARLINK-4501,1 53553U 22101AC  23245.31305407  .00000221  00000-0  31981-4 0  9997,2 53553  53.2155 231.2378 0001486  90.6500 269.4663 15.08839510 58176,6917.882,95.438,540.775,538.719,0.0
53553.0,STARLINK-4501,PAYLOAD,2023-09-03 07:21:34,15.08843205,0.0001515,53.2168,226.7787,94.4054,265.7111,9.5824e-05,1.238e-05,0.0,0 STARLINK-4501,1 53553U 22101AC  23246.30665097  .00001238  00000-0  95824-4 0  9996,2 53553  53.2168 226.7787 0001515  94.4054 265.7111 15.08843205 57668,6917.871,95.437,540.784,538.688,0.0
53553.0,STARLINK-4501,PAYLOAD,2023-09-03 23:15:27,15.08831553,0.0001487,53.2186,223.8044,90.7546,269.3616,1.8006e-06,-2.59e-06,0.0,0 STARLINK-4501,1 53553U 22101AC  23246.96906357 -.00000259  00000-0  18006-5 0  9996,2 53553  53.2186 223.8044 0001487  90.7546 269.3616 15.08831553 57769,6917.906,95.438,540.8,538.743,0.0
53553.0,STARLINK-4501,PAYLOAD,2023-09-04 08:47:46,15.08830218,0.0001417,53.2176,222.0199,89.8024,270.3131,-1.0211e-05,-4.5e-06,0.0,0 STARLINK-4501,1 53553U 22101AC  23247.36650721 -.00000450  00000-0 -10211-4 0  9995,2 53553  53.2176 222.0199 0001417  89.8024 270.3131 15.08830218 58484,6917.91,95.438,540.756,538.795,0.0
53553.0,STARLINK-4501,PAYLOAD,2023-09-05 07:03:09,15.0884196,0.0001318,53.2168,217.8561,95.0993,265.015,9.3305e-05,1.197e-05,0.0,0 STARLINK-4501,1 53553U 22101AC  23248.29385903  .00001197  00000-0  93305-4 0  9997,2 53553  53.2168 217.8561 0001318  95.0993 265.0150 15.08841960 57964,6917.874,95.437,540.651,538.828,0.0
53553.0,STARLINK-4501,PAYLOAD,2023-09-06 08:29:19,15.08837869,0.0001311,53.2167,213.0985,81.6471,278.467,0.0001329,1.828e-05,0.0,0 STARLINK-4501,1 53553U 22101AC  23249.35370312  .00001828  00000-0  13290-3 0  9998,2 53553  53.2167 213.0985 0001311  81.6471 278.4670 15.08837869 58123,6917.887,95.438,540.659,538.845,0.0
53553.0,STARLINK-4501,PAYLOAD,2023-09-07 06:44:44,15.08841138,0.0001451,53.2164,208.9359,87.9767,272.1392,6.741e-06,-1.81e-06,0.0,0 STARLINK-4501,1 53553U 22101AC  23250.28106577 -.00000181  00000-0  67410-5 0  9999,2 53553  53.2164 208.9359 0001451  87.9767 272.1392 15.08841138 58924,6917.877,95.437,540.746,538.738,0.0
53553.0,STARLINK-4501,PAYLOAD,2023-09-08 03:24:44,15.08842324,0.0001301,53.2167,205.0699,97.6493,262.4647,0.00015489,2.178e-05,0.0,0 STARLINK-4501,1 53553U 22101AC  23251.14217815  .00002178  00000-0  15489-3 0  9997,2 53553  53.2167 205.0699 0001301  97.6493 262.4647 15.08842324 58394,6917.873,95.437,540.638,538.838,0.0
53553.0,STARLINK-4501,PAYLOAD,2023-09-08 14:32:26,15.08837875,0.0001442,53.2165,202.9886,91.6374,268.4783,5.2329e-05,5.45e-06,0.0,0 STARLINK-4501,1 53553U 22101AC  23251.60586484  .00000545  00000-0  52329-4 0  9990,2 53553  53.2165 202.9886 0001442  91.6374 268.4783 15.08837875 58464,6917.887,95.438,540.749,538.754,0.0
53553.0,STARLINK-4501,PAYLOAD,2023-09-09 06:26:17,15.08843048,0.0001324,53.2173,200.0139,100.4376,259.6766,6.7495e-05,7.87e-06,0.0,0 STARLINK-4501,1 53553U 22101AC  23252.26826130  .00000787  00000-0  67495-4 0  9996,2 53553  53.2173 200.0139 0001324 100.4376 259.6766 15.08843048 59220,6917.871,95.437,540.652,538.82,0.0
53553.0,STARLINK-4501,PAYLOAD,2023-09-10 01:30:55,15.08842137,0.0001311,53.2169,196.4463,97.4519,262.6622,8.7308e-06,-1.49e-06,0.0,0 STARLINK-4501,1 53553U 22101AC  23253.06314476 -.00000149  00000-0  87308-5 0  9999,2 53553  53.2169 196.4463 0001311  97.4519 262.6622 15.08842137 58685,6917.874,95.437,540.646,538.832,0.0
53553.0,STARLINK-4501,PAYLOAD,2023-09-10 06:17:04,15.08844208,0.0001282,53.217,195.5539,90.8959,269.218,3.1275e-05,2.1e-06,0.0,0 STARLINK-4501,1 53553U 22101AC  23253.26186276  .00000210  00000-0  31275-4 0  9995,2 53553  53.2170 195.5539 0001282  90.8959 269.2180 15.08844208 59373,6917.868,95.437,540.619,538.846,0.0
53553.0,STARLINK-4501,PAYLOAD,2023-09-11 02:57:06,15.0884123,0.0001222,53.2171,191.689,93.0735,267.0397,5.6513e-05,6.12e-06,0.0,0 STARLINK-4501,1 53553U 22101AC  23254.12298684  .00000612  00000-0  56513-4 0  9996,2 53553  53.2171 191.6890 0001222  93.0735 267.0397 15.08841230 58841,6917.877,95.437,540.587,538.896,0.0
53553.0,STARLINK-4501,PAYLOAD,2023-09-11 12:29:24,15.08841017,0.0001257,53.2175,189.9042,86.1902,273.9234,7.539e-05,9.12e-06,0.0,0 STARLINK-4501,1 53553U 22101AC  23254.52042709  .00000912  00000-0  75390-4 0  9992,2 53553  53.2175 189.9042 0001257  86.1902 273.9234 15.08841017 59560,6917.877,95.437,540.612,538.873,0.0
53553.0,STARLINK-4501,PAYLOAD,2023-09-12 05:58:39,15.08843247,0.0001213,53.2177,186.6339,92.8356,267.2775,6.229e-05,7.04e-06,0.0,0 STARLINK-4501,1 53553U 22101AC  23255.24906668  .00000704  00000-0  62290-4 0  9999,2 53553  53.2177 186.6339 0001213  92.8356 267.2775 15.08843247 59017,6917.87,95.437,540.575,538.896,0.0
53553.0,STARLINK-4501,PAYLOAD,2023-09-13 04:14:02,15.08850931,0.0001365,53.2178,182.4712,84.0322,276.0825,0.00012199,1.655e-05,0.0,0 STARLINK-4501,1 53553U 22101AC  23256.17642273  .00001655  00000-0  12199-3 0  9999,2 53553  53.2178 182.4712 0001365  84.0322 276.0825 15.08850931 59811,6917.847,95.437,540.656,538.768,0.0
53553.0,STARLINK-4501,PAYLOAD,2023-09-14 02:29:26,15.08848205,0.0001456,53.2187,178.3035,81.6645,278.4512,3.7189e-05,3.04e-06,0.0,0 STARLINK-4501,1 53553U 22101AC  23257.10378419  .00000304  00000-0  37189-4 0  9998,2 53553  53.2187 178.3035 0001456  81.6645 278.4512 15.08848205 59297,6917.855,95.437,540.728,538.713,0.0
53553.0,STARLINK-4501,PAYLOAD,2023-09-15 02:20:14,15.08844576,0.0001404,53.2177,173.8452,84.6945,275.4207,2.1434e-06,-2.54e-06,0.0,0 STARLINK-4501,1 53553U 22101AC  23258.09738902 -.00000254  00000-0  21434-5 0  9996,2 53553  53.2177 173.8452 0001404  84.6945 275.4207 15.08844576 59440,6917.866,95.437,540.703,538.76,0.0
53553.0,STARLINK-4501,PAYLOAD,2023-09-15 18:14:06,15.08837798,0.0001249,53.2172,170.8729,102.1968,257.9164,5.1208e-05,5.27e-06,0.0,0 STARLINK-4501,1 53553U 22101AC  23258.75979171  .00000527  00000-0  51208-4 0  9997,2 53553  53.2172 170.8729 0001249 102.1968 257.9164 15.08837798 59543,6917.887,95.438,540.616,538.888,0.0
53553.0,STARLINK-4501,PAYLOAD,2023-09-16 00:35:38,15.08848054,0.0001213,53.2168,169.6854,98.8767,261.2363,4.7346e-05,4.66e-06,0.0,0 STARLINK-4501,1 53553U 22101AC  23259.02474610  .00000466  00000-0  47346-4 0  9996,2 53553  53.2168 169.6854 0001213  98.8767 261.2363 15.08848054 59582,6917.856,95.437,540.56,538.882,0.0
53553.0,STARLINK-4501,PAYLOAD,2023-09-16 03:46:23,15.0885172,0.0001283,53.2174,169.0887,99.212,260.9017,8.2609e-05,1.027e-05,0.0,0 STARLINK-4501,1 53553U 22101AC  23259.15722138  .00001027  00000-0  82609-4 0  9996,2 53553  53.2174 169.0887 0001283  99.2120 260.9017 15.08851720 60267,6917.845,95.437,540.597,538.822,0.0
53553.0,STARLINK-4501,PAYLOAD,2023-09-17 00:26:38,15.08666713,0.0001846,53.2171,165.2251,77.6165,282.5034,-0.001437,-0.00022977,0.0,0 STARLINK-4501,1 53553U 22101AC  23260.01849719 -.00022977  00000-0 -14370-2 0  9995,2 53553  53.2171 165.2251 0001846  77.6165 282.5034 15.08666713 59736,6918.41,95.449,541.552,538.998,0.0
53553.0,STARLINK-4501,PAYLOAD,2023-09-17 06:47:57,15.08848357,0.0001119,53.2174,164.0347,90.7283,269.3838,0.0001825,2.618e-05,0.0,0 STARLINK-4501,1 53553U 22101AC  23260.28330292  .00002618  00000-0  18250-3 0  9995,2 53553  53.2174 164.0347 0001119  90.7283 269.3838 15.08848357 59777,6917.855,95.437,540.494,538.946,0.0
